{"type": "FeatureCollection", "features": [ {"type": "Feature", "properties": {"norad_id": 44476, "name": "INTELSAT 39 (IS-39)", "group": "intelsat", "lat": -0.037668629478860835, "lon": -119.12900297596296, "alt_km": 35786.46492723155, "timestamp": "2025-12-02T07:10:08.777533+00:00", "meta": {"OBJECT_NAME": "INTELSAT 39 (IS-39)", "OBJECT_ID": "2019-049B", "EPOCH": "2025-12-01T12:23:48.261984", "MEAN_MOTION": 1.00270512, "ECCENTRICITY": 8.576e-05, "INCLINATION": 0.0174, "RA_OF_ASC_NODE": 311.7344, "ARG_OF_PERICENTER": 197.9955, "MEAN_ANOMALY": 168.8068, "EPHEMERIS_TYPE": 0, "CLASSIFICATION_TYPE": "U", "NORAD_CAT_ID": 44476, "ELEMENT_SET_NO": 999, "REV_AT_EPOCH": 2314, "BSTAR": 0, "MEAN_MOTION_DOT": 5.5e-07, "MEAN_MOTION_DDOT": 0}, "tle": {"line1": "1 44476U 19049B   25335.51653081  .00000055  00000+0  00000+0 0  9993", "line2": "2 44476   0.0174 311.7344 0000857 197.9955 168.8068  1.00270512 23142"}}, "geometry": {"type": "Point", "coordinates": [-119.12900297596296, -0.037668629478860835]}}, {"type": "Feature", "properties": {"norad_id": 46114, "name": "GALAXY 30 (G-30)", "group": "intelsat", "lat": 0.033515106305356014, "lon": 53.92484496265938, "alt_km": 35795.52818718985, "timestamp": "2025-12-02T07:10:08.777545+00:00", "meta": {"OBJECT_NAME": "GALAXY 30 (G-30)", "OBJECT_ID": "2020-056C", "EPOCH": "2025-12-01T20:42:04.934304", "MEAN_MOTION": 1.0027242, "ECCENTRICITY": 0.0002369, "INCLINATION": 0.0148, "RA_OF_ASC_NODE": 292.7027, "ARG_OF_PERICENTER": 317.0993, "MEAN_ANOMALY": 6.6971, "EPHEMERIS_TYPE": 0, "CLASSIFICATION_TYPE": "U", "NORAD_CAT_ID": 46114, "ELEMENT_SET_NO": 999, "REV_AT_EPOCH": 1931, "BSTAR": 0, "MEAN_MOTION_DOT": 5.8e-07, "MEAN_MOTION_DDOT": 0}, "tle": {"line1": "1 46114U 20056C   25335.86255711  .00000058  00000+0  00000+0 0  9993", "line2": "2 46114   0.0148 292.7027 0002369 317.0993   6.6971  1.00272420 19313"}}, "geometry": {"type": "Point", "coordinates": [53.92484496265938, 0.033515106305356014]}}, {"type": "Feature", "properties": {"norad_id": 54026, "name": "GALAXY 33 (G-33)", "group": "intelsat", "lat": 0.034688669591239576, "lon": 45.927421640473895, "alt_km": 35793.49256994292, "timestamp": "2025-12-02T07:10:08.777557+00:00", "meta": {"OBJECT_NAME": "GALAXY 33 (G-33)", "OBJECT_ID": "2022-128A", "EPOCH": "2025-12-01T16:36:24.071328", "MEAN_MOTION": 1.00272189, "ECCENTRICITY": 0.0001899, "INCLINATION": 0.012, "RA_OF_ASC_NODE": 321.4469, "ARG_OF_PERICENTER": 284.0278, "MEAN_ANOMALY": 301.4386, "EPHEMERIS_TYPE": 0, "CLASSIFICATION_TYPE": "U", "NORAD_CAT_ID": 54026, "ELEMENT_SET_NO": 999, "REV_AT_EPOCH": 1176, "BSTAR": 0, "MEAN_MOTION_DOT": 1e-06, "MEAN_MOTION_DDOT": 0}, "tle": {"line1": "1 54026U 22128A   25335.69194527  .00000100  00000+0  00000+0 0  9992", "line2": "2 54026   0.0120 321.4469 0001899 284.0278 301.4386  1.00272189 11769"}}, "geometry": {"type": "Point", "coordinates": [45.927421640473895, 0.034688669591239576]}}, {"type": "Feature", "properties": {"norad_id": 54027, "name": "GALAXY 34 (G-34)", "group": "intelsat", "lat": 0.03799970943911859, "lon": 49.919000882985436, "alt_km": 35791.52038530998, "timestamp": "2025-12-02T07:10:08.777568+00:00", "meta": {"OBJECT_NAME": "GALAXY 34 (G-34)", "OBJECT_ID": "2022-128B", "EPOCH": "2025-12-01T20:45:55.897056", "MEAN_MOTION": 1.00272949, "ECCENTRICITY": 0.0001428, "INCLINATION": 0.015, "RA_OF_ASC_NODE": 316.5626, "ARG_OF_PERICENTER": 289.8338, "MEAN_ANOMALY": 7.0638, "EPHEMERIS_TYPE": 0, "CLASSIFICATION_TYPE": "U", "NORAD_CAT_ID": 54027, "ELEMENT_SET_NO": 999, "REV_AT_EPOCH": 1193, "BSTAR": 0, "MEAN_MOTION_DOT": 8e-07, "MEAN_MOTION_DDOT": 0}, "tle": {"line1": "1 54027U 22128B   25335.86523029  .00000080  00000+0  00000+0 0  9992", "line2": "2 54027   0.0150 316.5626 0001428 289.8338   7.0638  1.00272949 11933"}}, "geometry": {"type": "Point", "coordinates": [49.919000882985436, 0.03799970943911859]}}, {"type": "Feature", "properties": {"norad_id": 54243, "name": "GALAXY 31 (G-31)", "group": "intelsat", "lat": 0.03480076934616042, "lon": 57.8992921300698, "alt_km": 35793.84933586375, "timestamp": "2025-12-02T07:10:08.777580+00:00", "meta": {"OBJECT_NAME": "GALAXY 31 (G-31)", "OBJECT_ID": "2022-153A", "EPOCH": "2025-12-01T16:39:46.248192", "MEAN_MOTION": 1.00271259, "ECCENTRICITY": 0.0002035, "INCLINATION": 0.0129, "RA_OF_ASC_NODE": 317.4033, "ARG_OF_PERICENTER": 307.9117, "MEAN_ANOMALY": 294.4136, "EPHEMERIS_TYPE": 0, "CLASSIFICATION_TYPE": "U", "NORAD_CAT_ID": 54243, "ELEMENT_SET_NO": 999, "REV_AT_EPOCH": 515, "BSTAR": 0, "MEAN_MOTION_DOT": 0, "MEAN_MOTION_DDOT": 0}, "tle": {"line1": "1 54243U 22153A   25335.69428528  .00000000  00000+0  00000+0 0  9991", "line2": "2 54243   0.0129 317.4033 0002035 307.9117 294.4136  1.00271259  5158"}}, "geometry": {"type": "Point", "coordinates": [57.8992921300698, 0.03480076934616042]}}, {"type": "Feature", "properties": {"norad_id": 54244, "name": "GALAXY 32 (G-32)", "group": "intelsat", "lat": 0.024555652476909464, "lon": 87.94837666657406, "alt_km": 35794.3394976748, "timestamp": "2025-12-02T07:10:08.777592+00:00", "meta": {"OBJECT_NAME": "GALAXY 32 (G-32)", "OBJECT_ID": "2022-153B", "EPOCH": "2025-12-01T11:40:07.444128", "MEAN_MOTION": 1.00274221, "ECCENTRICITY": 0.0002517, "INCLINATION": 0.0104, "RA_OF_ASC_NODE": 321.2268, "ARG_OF_PERICENTER": 339.7507, "MEAN_ANOMALY": 213.6705, "EPHEMERIS_TYPE": 0, "CLASSIFICATION_TYPE": "U", "NORAD_CAT_ID": 54244, "ELEMENT_SET_NO": 999, "REV_AT_EPOCH": 1116, "BSTAR": 0, "MEAN_MOTION_DOT": -1.53e-06, "MEAN_MOTION_DDOT": 0}, "tle": {"line1": "1 54244U 22153B   25335.48619727 -.00000153  00000+0  00000+0 0  9992", "line2": "2 54244   0.0104 321.2268 0002517 339.7507 213.6705  1.00274221 11161"}}, "geometry": {"type": "Point", "coordinates": [87.94837666657406, 0.024555652476909464]}}, {"type": "Feature", "properties": {"norad_id": 54741, "name": "GALAXY 35 (G-35)", "group": "intelsat", "lat": 0.014522507097070496, "lon": 85.82042697762243, "alt_km": 35797.34107061542, "timestamp": "2025-12-02T07:10:08.777604+00:00", "meta": {"OBJECT_NAME": "GALAXY 35 (G-35)", "OBJECT_ID": "2022-170A", "EPOCH": "2025-12-01T11:39:30.005280", "MEAN_MOTION": 1.00270479, "ECCENTRICITY": 0.00025987, "INCLINATION": 0.0172, "RA_OF_ASC_NODE": 276.7426, "ARG_OF_PERICENTER": 339.8146, "MEAN_ANOMALY": 255.8378, "EPHEMERIS_TYPE": 0, "CLASSIFICATION_TYPE": "U", "NORAD_CAT_ID": 54741, "ELEMENT_SET_NO": 999, "REV_AT_EPOCH": 1091, "BSTAR": 0, "MEAN_MOTION_DOT": -1.41e-06, "MEAN_MOTION_DDOT": 0}, "tle": {"line1": "1 54741U 22170A   25335.48576395 -.00000141  00000+0  00000+0 0  9993", "line2": "2 54741   0.0172 276.7426 0002598 339.8146 255.8378  1.00270479 10914"}}, "geometry": {"type": "Point", "coordinates": [85.82042697762243, 0.014522507097070496]}}, {"type": "Feature", "properties": {"norad_id": 54742, "name": "GALAXY 36 (G-36)", "group": "intelsat", "lat": 0.006166333618606663, "lon": 89.91489592099491, "alt_km": 35788.474421921776, "timestamp": "2025-12-02T07:10:08.777615+00:00", "meta": {"OBJECT_NAME": "GALAXY 36 (G-36)", "OBJECT_ID": "2022-170B", "EPOCH": "2025-12-01T18:31:24.714048", "MEAN_MOTION": 1.00270061, "ECCENTRICITY": 5.29e-05, "INCLINATION": 0.0213, "RA_OF_ASC_NODE": 260.0974, "ARG_OF_PERICENTER": 336.644, "MEAN_ANOMALY": 23.0059, "EPHEMERIS_TYPE": 0, "CLASSIFICATION_TYPE": "U", "NORAD_CAT_ID": 54742, "ELEMENT_SET_NO": 999, "REV_AT_EPOCH": 1079, "BSTAR": 0, "MEAN_MOTION_DOT": -1.64e-06, "MEAN_MOTION_DDOT": 0}, "tle": {"line1": "1 54742U 22170B   25335.77181382 -.00000164  00000+0  00000+0 0  9999", "line2": "2 54742   0.0213 260.0974 0000529 336.6440  23.0059  1.00270061 10793"}}, "geometry": {"type": "Point", "coordinates": [89.91489592099491, 0.006166333618606663]}}, {"type": "Feature", "properties": {"norad_id": 57493, "name": "GALAXY 37 (G-37)", "group": "intelsat", "lat": 0.01766661925148055, "lon": 51.93210315287909, "alt_km": 35794.92410559645, "timestamp": "2025-12-02T07:10:08.777627+00:00", "meta": {"OBJECT_NAME": "GALAXY 37 (G-37)", "OBJECT_ID": "2023-112A", "EPOCH": "2025-12-01T09:47:10.762080", "MEAN_MOTION": 1.0027212, "ECCENTRICITY": 0.00023264, "INCLINATION": 0.0261, "RA_OF_ASC_NODE": 54.096, "ARG_OF_PERICENTER": 201.8678, "MEAN_ANOMALY": 194.3645, "EPHEMERIS_TYPE": 0, "CLASSIFICATION_TYPE": "U", "NORAD_CAT_ID": 57493, "ELEMENT_SET_NO": 999, "REV_AT_EPOCH": 856, "BSTAR": 0, "MEAN_MOTION_DOT": 6.9e-07, "MEAN_MOTION_DDOT": 0}, "tle": {"line1": "1 57493U 23112A   25335.40776345  .00000069  00000+0  00000+0 0  9994", "line2": "2 57493   0.0261  54.0960 0002326 201.8678 194.3645  1.00272120  8564"}}, "geometry": {"type": "Point", "coordinates": [51.93210315287909, 0.01766661925148055]}}]}